H1 CPF  1  MCC 2022 10 17 12  7901 larets
H2  0304206 5557    27944 2022 10 16 23 45 00 2022 10 21 23 57 00   180 1 1  0 0 0
H9
10 0 59868 85500.000000 0     -5685917.027     -4088085.560      -914485.992
10 0 59868 85680.000000 0     -5603904.495     -3681905.172     -2216818.588
10 0 59868 85860.000000 0     -5305504.474     -3146662.750     -3437854.368
10 0 59868 86040.000000 0     -4798664.361     -2507505.598     -4532906.748
10 0 59868 86220.000000 0     -4099635.786     -1793032.317     -5462001.384
10 0 59869     0.000000 0     -3232405.994     -1034010.780     -6191325.270
10 0 59869   180.000000 0     -2227822.834      -262049.030     -6694420.502
10 0 59869   360.000000 0     -1122457.444       491717.401     -6953091.039
10 0 59869   540.000000 0        42743.376      1197866.754     -6958007.297
10 0 59869   720.000000 0      1223964.360      1829822.699     -6709011.602
10 0 59869   900.000000 0      2376151.557      2364843.169     -6215126.450
10 0 59869  1080.000000 0      3454719.761      2784838.932     -5494252.913
10 0 59869  1260.000000 0      4417275.110      3076991.458     -4572563.694
10 0 59869  1440.000000 0      5225299.844      3234152.665     -3483603.707
10 0 59869  1620.000000 0      5845730.967      3255006.905     -2267105.143
10 0 59869  1800.000000 0      6252358.717      3143986.897      -967552.536
10 0 59869  1980.000000 0      6426974.741      2910939.572       367458.965
10 0 59869  2160.000000 0      6360203.118      2570553.312      1689003.915
10 0 59869  2340.000000 0      6051968.013      2141578.260      2948664.813
10 0 59869  2520.000000 0      5511574.295      1645882.109      4100350.388
10 0 59869  2700.000000 0      4757393.263      1107388.036      5102008.419
10 0 59869  2880.000000 0      3816181.247       550955.022      5917156.312
10 0 59869  3060.000000 0      2722071.497         1256.202      6516182.026
10 0 59869  3240.000000 0      1515290.528      -518289.602      6877369.025
10 0 59869  3420.000000 0       240661.984      -986492.004      6987636.599
10 0 59869  3600.000000 0     -1054058.633     -1385237.883      6842979.968
10 0 59869  3780.000000 0     -2319956.777     -1700184.086      6448601.059
10 0 59869  3960.000000 0     -3508782.814     -1921270.230      5818737.354
10 0 59869  4140.000000 0     -4574784.351     -2043040.851      4976198.108
10 0 59869  4320.000000 0     -5476490.611     -2064769.087      3951591.257
10 0 59869  4500.000000 0     -6178367.544     -1990368.064      2782253.976
10 0 59869  4680.000000 0     -6652275.388     -1828093.236      1510921.544
10 0 59869  4860.000000 0     -6878665.084     -1590049.964       184164.973
10 0 59869  5040.000000 0     -6847434.332     -1291521.582     -1149349.549
10 0 59869  5220.000000 0     -6558392.546      -950152.193     -2440697.537
10 0 59869  5400.000000 0     -6021308.350      -585030.759     -3642543.872
10 0 59869  5580.000000 0     -5255540.810      -215724.947     -4710918.830
10 0 59869  5760.000000 0     -4289275.689       138688.290     -5606842.138
10 0 59869  5940.000000 0     -3158414.316       460541.170     -6297729.587
10 0 59869  6120.000000 0     -1905176.348       734398.112     -6758533.783
10 0 59869  6300.000000 0      -576488.612       947748.920     -6972597.134
10 0 59869  6480.000000 0       777778.648      1091548.715     -6932204.355
10 0 59869  6660.000000 0      2106665.341      1160586.283     -6638837.028
10 0 59869  6840.000000 0      3360023.031      1153671.618     -6103127.355
10 0 59869  7020.000000 0      4490399.116      1073635.661     -5344498.111
10 0 59869  7200.000000 0      5454840.877       927141.518     -4390503.909
10 0 59869  7380.000000 0      6216563.833       724315.038     -3275878.873
10 0 59869  7560.000000 0      6746410.357       478206.331     -2041306.455
10 0 59869  7740.000000 0      7024033.329       204104.942      -731945.544
10 0 59869  7920.000000 0      7038735.128       -81260.546       604241.654
10 0 59869  8100.000000 0      6789913.304      -360597.023      1918284.868
10 0 59869  8280.000000 0      6287088.323      -616952.056      3162049.220
10 0 59869  8460.000000 0      5549504.738      -834599.895      4290041.188
10 0 59869  8640.000000 0      4605336.955      -999860.936      5261090.402
10 0 59869  8820.000000 0      3490546.921     -1101815.046      6039844.729
10 0 59869  9000.000000 0      2247455.235     -1132871.964      6598022.704
10 0 59869  9180.000000 0       923098.797     -1089180.203      6915392.784
10 0 59869  9360.000000 0      -432562.188      -970858.387      6980461.157
10 0 59869  9540.000000 0     -1768520.672      -782039.635      6790852.959
10 0 59869  9720.000000 0     -3034618.604      -530729.006      6353391.264
10 0 59869  9900.000000 0     -4183411.599      -228476.720      5683877.706
10 0 59869 10080.000000 0     -5171953.636       110121.913      4806571.299
10 0 59869 10260.000000 0     -5963437.524       468083.702      3753361.340
10 0 59869 10440.000000 0     -6528621.053       826828.802      2562650.338
10 0 59869 10620.000000 0     -6846976.953      1167074.187      1277977.151
10 0 59869 10800.000000 0     -6907508.536      1469786.750       -53582.137
10 0 59869 10980.000000 0     -6709177.548      1717148.258     -1383177.142
10 0 59869 11160.000000 0     -6260912.172      1893479.323     -2662027.817
10 0 59869 11340.000000 0     -5581198.559      1986075.592     -3843267.402
10 0 59869 11520.000000 0     -4697270.591      1985908.509     -4883700.768
10 0 59869 11700.000000 0     -3643950.295      1888153.511     -5745391.156
10 0 59869 11880.000000 0     -2462212.017      1692525.323     -6397017.938
10 0 59869 12060.000000 0     -1197542.999      1403408.179     -6814970.813
10 0 59869 12240.000000 0       101831.155      1029777.643     -6984149.878
10 0 59869 12420.000000 0      1386778.203       584920.766     -6898464.442
10 0 59869 12600.000000 0      2609098.684        85964.870     -6561037.022
10 0 59869 12780.000000 0      3723320.310      -446774.294     -5984096.666
10 0 59869 12960.000000 0      4688385.372      -990602.674     -5188565.324
10 0 59869 13140.000000 0      5469180.404     -1521392.005     -4203348.140
10 0 59869 13320.000000 0      6037858.008     -2014626.158     -3064331.131
10 0 59869 13500.000000 0      6374888.054     -2446505.452     -1813104.094
10 0 59869 13680.000000 0      6469784.788     -2795059.174      -495445.984
10 0 59869 13860.000000 0      6321468.271     -3041209.345       840371.305
10 0 59869 14040.000000 0      5938237.588     -3169730.250      2145392.733
10 0 59869 14220.000000 0      5337349.120     -3170051.025      3371824.745
10 0 59869 14400.000000 0      4544221.468     -3036856.995      4474823.401
10 0 59869 14580.000000 0      3591320.937     -2770460.687      5414146.585
10 0 59869 14760.000000 0      2516786.343     -2376932.066      6155611.539
10 0 59869 14940.000000 0      1362862.256     -1867979.923      6672301.526
10 0 59869 15120.000000 0       174218.319     -1260597.971      6945493.305
10 0 59869 15300.000000 0     -1003780.060      -576490.331      6965288.739
10 0 59869 15480.000000 0     -2126786.351       158702.913      6730944.348
10 0 59869 15660.000000 0     -3153122.550       916356.216      6250899.954
10 0 59869 15840.000000 0     -4045317.700      1665957.640      5542504.615
10 0 59869 16020.000000 0     -4771490.404      2376322.691      4631440.090
10 0 59869 16200.000000 0     -5306526.358      3016884.476      3550842.095
10 0 59869 16380.000000 0     -5632996.323      3559007.724      2340134.050
10 0 59869 16560.000000 0     -5741774.457      3977269.643      1043607.814
10 0 59869 16740.000000 0     -5632320.891      4250645.433      -291210.621
10 0 59869 16920.000000 0     -5312602.971      4363529.923     -1615343.129
10 0 59869 17100.000000 0     -4798657.824      4306542.483     -2880212.718
10 0 59869 17280.000000 0     -4113809.669      4077064.490     -4039482.016
10 0 59869 17460.000000 0     -3287590.342      3679482.372     -5050782.472
10 0 59869 17640.000000 0     -2354430.602      3125132.824     -5877260.371
10 0 59869 17820.000000 0     -1352196.391      2431961.817     -6488891.032
10 0 59869 18000.000000 0      -320631.822      1623913.370     -6863524.140
10 0 59869 18180.000000 0       700218.857       730080.026     -6987631.323
10 0 59869 18360.000000 0      1671552.248      -216349.300     -6856755.892
10 0 59869 18540.000000 0      2557266.965     -1179314.486     -6475657.106
10 0 59869 18720.000000 0      3325293.719     -2121242.873     -5858146.230
10 0 59869 18900.000000 0      3948758.924     -3004499.707     -5026623.954
10 0 59869 19080.000000 0      4406947.111     -3792892.805     -4011317.494
10 0 59869 19260.000000 0      4686016.081     -4453166.860     -2849223.331
10 0 59869 19440.000000 0      4779441.220     -4956425.140     -1582788.648
10 0 59869 19620.000000 0      4688162.262     -5279414.939      -258361.812
10 0 59869 19800.000000 0      4420413.439     -5405605.704      1075532.036
10 0 59869 19980.000000 0      3991243.696     -5325997.200      2370014.786
10 0 59869 20160.000000 0      3421748.886     -5039612.416      3577694.571
10 0 59869 20340.000000 0      2738060.240     -4553653.993      4654433.282
10 0 59869 20520.000000 0      1970146.740     -3883318.104      5560969.080
10 0 59869 20700.000000 0      1150494.894     -3051282.049      6264330.895
10 0 59869 20880.000000 0       312728.460     -2086894.707      6738997.787
10 0 59869 21060.000000 0      -509767.450     -1025113.481      6967771.600
10 0 59869 21240.000000 0     -1285162.145        94769.754      6942357.202
10 0 59869 21420.000000 0     -1984395.347      1230575.007      6663642.524
10 0 59869 21600.000000 0     -2582256.422      2338805.739      6141672.459
10 0 59869 21780.000000 0     -3058293.439      3376298.862      5395319.078
10 0 59869 21960.000000 0     -3397525.349      4301904.514      4451651.106
99
